[{"OBJECT_NAME":"STARLINK-31658","OBJECT_ID":"2024-073C","EPOCH":"2026-03-08T23:49:40.679616","MEAN_MOTION":15.27577693,"ECCENTRICITY":8.65e-5,"INCLINATION":43.0011,"RA_OF_ASC_NODE":281.6769,"ARG_OF_PERICENTER":234.2074,"MEAN_ANOMALY":125.8698,"EPHEMERIS_TYPE":0,"CLASSIFICATION_TYPE":"U","NORAD_CAT_ID":59513,"ELEMENT_SET_NO":999,"REV_AT_EPOCH":10652,"BSTAR":-3.7783113e-5,"MEAN_MOTION_DOT":-1.301e-5,"MEAN_MOTION_DDOT":0},{"OBJECT_NAME":"OBJECT F","OBJECT_ID":"2021-022F","EPOCH":"2026-03-09T23:37:37.165152","MEAN_MOTION":15.31317672,"ECCENTRICITY":0.00120882,"INCLINATION":97.3982,"RA_OF_ASC_NODE":329.8375,"ARG_OF_PERICENTER":85.9268,"MEAN_ANOMALY":274.3355,"EPHEMERIS_TYPE":0,"CLASSIFICATION_TYPE":"U","NORAD_CAT_ID":47937,"ELEMENT_SET_NO":999,"REV_AT_EPOCH":27452,"BSTAR":0.00038690553,"MEAN_MOTION_DOT":0.00011656,"MEAN_MOTION_DDOT":0}]
